IRIDIUM 39              
1 25042U 97069D   25100.46080243  .00001934  00000+0  50303-3 0  9999
2 25042  86.3906 240.1500 0018396 166.9068 193.2617 14.49096139439159
IRIDIUM 38              
1 25043U 97069E   25100.53608046  .00001160  00000+0  37724-3 0  9998
2 25043  86.3910 261.6173 0001634  31.8532 328.2764 14.38031869436238
IRIDIUM 42              
1 25077U 97077A   25100.52899633  .00001063  00000+0  35729-3 0  9992
2 25077  86.3907 267.7124 0001925  70.9429 289.1976 14.36273482431485
IRIDIUM 44              
1 25078U 97077B   25100.45758114  .00001152  00000+0  35874-3 0  9993
2 25078  86.3931 249.8297 0000767 154.5595 205.5642 14.40163110433958
IRIDIUM 45              
1 25104U 97082A   25100.48907879  .00028022  00000+0  10836-2 0  9991
2 25104  86.3550  80.6952 0120941 223.5325 135.6326 15.19437446441751
IRIDIUM 24              
1 25105U 97082B   25100.51748635  .00001146  00000+0  34356-3 0  9991
2 25105  86.3855 109.0131 0009475 309.5261  50.5101 14.42004855433461
IRIDIUM 51              
1 25262U 98018A   25100.45977557  .00043968  00000+0  11298-2 0  9992
2 25262  86.3806  89.2333 0099184 147.7512 212.9858 15.34117645436629
IRIDIUM 57              
1 25273U 98019B   25100.71366020  .00000733  00000+0  24669-3 0  9991
2 25273  86.4024 173.5152 0002191  93.4107 266.7340 14.35835436415310
